[{"_id":"573f2b5502472d034493bb35","city":"Soho/Noho","zipcode":10012},{"_id":"573f2b5502472d034493bb36","city":"Tribeca","zipcode":10013},{"_id":"573f2b5502472d034493bb37","city":"New york county","zipcode":10004},{"_id":"573f2b5502472d034493bb38","city":"Wall street ","zipcode":10006},{"_id":"573f2b5502472d034493bb39","city":"Tribeca","zipcode":10007},{"_id":"573f2b5502472d034493bb3a","city":"Battery park city ","zipcode":10280},{"_id":"573f2b5502472d034493bb3b","city":"Battery park city ","zipcode":10282},{"_id":"573f2b5502472d034493bb3c","city":"Wall street ","zipcode":10005},{"_id":"573f2b5502472d034493bb3d","city":"City hall","zipcode":10038},{"_id":"573f2b5502472d034493bb3e","city":"Meatpacking district","zipcode":10014},{"_id":"573f2b5502472d034493bb3f","city":"Lower east side","zipcode":10002},{"_id":"573f2b5502472d034493bb40","city":"East village","zipcode":10003},{"_id":"573f2b5502472d034493bb41","city":"East village","zipcode":10009},{"_id":"573f2b5502472d034493bb42","city":"Chelsea","zipcode":10011},{"_id":"573f2b5502472d034493bb43","city":"Stuyvesant Park","zipcode":10010},{"_id":"573f2b5502472d034493bb44","city":"Chelsea","zipcode":10001},{"_id":"573f2b5502472d034493bb45","city":"Clinton","zipcode":10018},{"_id":"573f2b5502472d034493bb46","city":"Murray Hill","zipcode":10016},{"_id":"573f2b5502472d034493bb47","city":"Murray Hill","zipcode":10017},{"_id":"573f2b5502472d034493bb48","city":"Turtle Bay","zipcode":10022},{"_id":"573f2b5502472d034493bb49","city":"Upper West","zipcode":10019},{"_id":"573f2b5502472d034493bb4a","city":"Theatre District","zipcode":10020},{"_id":"573f2b5502472d034493bb4b","city":"Clinton","zipcode":10036},{"_id":"573f2b5502472d034493bb4c","city":"Lenox","zipcode":10021},{"_id":"573f2b5502472d034493bb4d","city":"Yorkville","zipcode":10028},{"_id":"573f2b5502472d034493bb4e","city":"Upper East","zipcode":10065},{"_id":"573f2b5502472d034493bb4f","city":"Lenox Hill","zipcode":10075},{"_id":"573f2b5502472d034493bb50","city":"Yorkville","zipcode":10128},{"_id":"573f2b5502472d034493bb51","city":"Upper west","zipcode":10162},{"_id":"573f2b5502472d034493bb52","city":"Upper west","zipcode":10023},{"_id":"573f2b5502472d034493bb53","city":"New york county","zipcode":10024},{"_id":"573f2b5502472d034493bb54","city":"Upper west","zipcode":10069},{"_id":"573f2b5502472d034493bb55","city":"Harlem","zipcode":10029},{"_id":"573f2b5502472d034493bb56","city":"Upper West Side","zipcode":10025},{"_id":"573f2b5502472d034493bb57","city":"Harlem","zipcode":10035},{"_id":"573f2b5502472d034493bb58","city":"Morningside heights","zipcode":10027},{"_id":"573f2b5502472d034493bb59","city":"Harlem","zipcode":10026},{"_id":"573f2b5502472d034493bb5a","city":"Hamilton heights","zipcode":10031},{"_id":"573f2b5502472d034493bb5b","city":"Harlem","zipcode":10030},{"_id":"573f2b5502472d034493bb5c","city":"Harlem","zipcode":10037},{"_id":"573f2b5502472d034493bb5d","city":"Washington heights","zipcode":10039},{"_id":"573f2b5502472d034493bb5e","city":"Washington heights","zipcode":10032},{"_id":"573f2b5502472d034493bb5f","city":"Washington heights","zipcode":10033},{"_id":"573f2b5502472d034493bb60","city":"Inwood","zipcode":10034},{"_id":"573f2b5502472d034493bb61","city":"Washington heights","zipcode":10040},{"_id":"573f2b5502472d034493bb62","city":"Mott haven","zipcode":10454},{"_id":"573f2b5502472d034493bb63","city":"Mott haven","zipcode":10455},{"_id":"573f2b5502472d034493bb64","city":"Longwood","zipcode":10459},{"_id":"573f2b5502472d034493bb65","city":"Hunt's point","zipcode":10474},{"_id":"573f2b5502472d034493bb66","city":"Melose","zipcode":10451},{"_id":"573f2b5502472d034493bb67","city":"Van nest","zipcode":10462},{"_id":"573f2b5502472d034493bb68","city":"Soundview bruckner","zipcode":10472},{"_id":"573f2b5502472d034493bb69","city":"Soundview ","zipcode":10473},{"_id":"573f2b5502472d034493bb6a","city":"Highbridge","zipcode":10452},{"_id":"573f2b5502472d034493bb6b","city":"Melrose","zipcode":10456},{"_id":"573f2b5502472d034493bb6c","city":"Bronx county","zipcode":10464},{"_id":"573f2b5502472d034493bb6d","city":"Eastchester Bay ","zipcode":10465},{"_id":"573f2b5502472d034493bb6e","city":"Morris Heights","zipcode":10453},{"_id":"573f2b5502472d034493bb6f","city":"Jerome Park","zipcode":10468},{"_id":"573f2b5502472d034493bb70","city":"North Baychester","zipcode":10466},{"_id":"573f2b5502472d034493bb71","city":"Wakefield","zipcode":10470},{"_id":"573f2b5502472d034493bb72","city":"Coop City","zipcode":10475},{"_id":"573f2b5502472d034493bb73","city":"Bathgate","zipcode":10457},{"_id":"573f2b5502472d034493bb74","city":"Bronx Park South","zipcode":10460},{"_id":"573f2b5502472d034493bb75","city":"Pelham Gardens","zipcode":10469},{"_id":"573f2b5502472d034493bb76","city":"Westchester Square","zipcode":10461},{"_id":"573f2b5502472d034493bb77","city":"Riverdale","zipcode":10463},{"_id":"573f2b5502472d034493bb78","city":"Fieldston","zipcode":10471},{"_id":"573f2b5502472d034493bb79","city":"Van cortlandt","zipcode":10467},{"_id":"573f2b5502472d034493bb7a","city":"Belmont","zipcode":10458},{"_id":"573f2b5502472d034493bb7b","city":"Coney Island","zipcode":11224},{"_id":"573f2b5502472d034493bb7c","city":"Bensonhurst","zipcode":11223},{"_id":"573f2b5502472d034493bb7d","city":"Homecrest|Sheepshead Bay","zipcode":11229},{"_id":"573f2b5502472d034493bb7e","city":"Sheepshead Bay","zipcode":11235},{"_id":"573f2b5502472d034493bb7f","city":"Kings County","zipcode":11214},{"_id":"573f2b5502472d034493bb80","city":"Bergen Beach","zipcode":11234},{"_id":"573f2b5502472d034493bb81","city":"Marine Park","zipcode":11210},{"_id":"573f2b5502472d034493bb82","city":"Bensonhurst","zipcode":11204},{"_id":"573f2b5502472d034493bb83","city":"Kensington","zipcode":11218},{"_id":"573f2b5502472d034493bb84","city":"Borough Park","zipcode":11219},{"_id":"573f2b5502472d034493bb85","city":"East Flatbush","zipcode":11203},{"_id":"573f2b5502472d034493bb86","city":"Flatbush","zipcode":11226},{"_id":"573f2b5502472d034493bb87","city":"Bayridge","zipcode":11209},{"_id":"573f2b5502472d034493bb88","city":"Dyker Heights","zipcode":11228},{"_id":"573f2b5502472d034493bb89","city":"Sunset Park","zipcode":11220},{"_id":"573f2b5502472d034493bb8a","city":"Canarsie","zipcode":11236},{"_id":"573f2b5502472d034493bb8b","city":"Bensonhurst","zipcode":11230},{"_id":"573f2b5502472d034493bb8c","city":"Prospect Leffert","zipcode":11225},{"_id":"573f2b5502472d034493bb8d","city":"Sunset Park","zipcode":11232},{"_id":"573f2b5502472d034493bb8e","city":"Brownsville","zipcode":11212},{"_id":"573f2b5502472d034493bb8f","city":"Ocean Hill","zipcode":11233},{"_id":"573f2b5502472d034493bb90","city":"Spring Creek","zipcode":11239},{"_id":"573f2b5502472d034493bb91","city":"City Line","zipcode":11208},{"_id":"573f2b5502472d034493bb92","city":"East New York","zipcode":11207},{"_id":"573f2b5502472d034493bb93","city":"Red Hook","zipcode":11231},{"_id":"573f2b5502472d034493bb94","city":"Crown Heights","zipcode":11213},{"_id":"573f2b5502472d034493bb95","city":"Hill|BoCoCa","zipcode":11217},{"_id":"573f2b5502472d034493bb96","city":"South Slope","zipcode":11215},{"_id":"573f2b5502472d034493bb97","city":"Bedford Stuyvesant","zipcode":11216},{"_id":"573f2b5502472d034493bb98","city":"Bushwick","zipcode":11221},{"_id":"573f2b5502472d034493bb99","city":"Ridgewood","zipcode":11237},{"_id":"573f2b5502472d034493bb9a","city":"Downtown Brooklyn","zipcode":11201},{"_id":"573f2b5502472d034493bb9b","city":"Navy Hill","zipcode":11205},{"_id":"573f2b5502472d034493bb9c","city":"Prospect Heights","zipcode":11238},{"_id":"573f2b5502472d034493bb9d","city":"Williamsburg","zipcode":11211},{"_id":"573f2b5502472d034493bb9e","city":"Williamsburg","zipcode":11206},{"_id":"573f2b5502472d034493bb9f","city":"Little Poland","zipcode":11222},{"_id":"573f2b5502472d034493bba0","city":"Arverne-Edgemere","zipcode":11692},{"_id":"573f2b5502472d034493bba1","city":"Queens County","zipcode":11693},{"_id":"573f2b5502472d034493bba2","city":"Belle","zipcode":11694},{"_id":"573f2b5502472d034493bba3","city":"Richmond Hill","zipcode":11695},{"_id":"573f2b5502472d034493bba4","city":"Breezy Point","zipcode":11697},{"_id":"573f2b5502472d034493bba5","city":"Bayswater","zipcode":11691},{"_id":"573f2b5502472d034493bba6","city":"Richmond Hill","zipcode":11690},{"_id":"573f2b5502472d034493bba7","city":"Kew Gardens","zipcode":11415},{"_id":"573f2b5502472d034493bba8","city":"Woodhaven","zipcode":11421},{"_id":"573f2b5502472d034493bba9","city":"Richmond Hill","zipcode":11418},{"_id":"573f2b5502472d034493bbaa","city":"Woodhaven","zipcode":11416},{"_id":"573f2b5502472d034493bbab","city":"Richmond Hill","zipcode":11419},{"_id":"573f2b5502472d034493bbac","city":"Forest Hills","zipcode":11424},{"_id":"573f2b5502472d034493bbad","city":"Jamaica Estates","zipcode":11423},{"_id":"573f2b5502472d034493bbae","city":"Jamaica Hills","zipcode":11432},{"_id":"573f2b5502472d034493bbaf","city":"Jamaica","zipcode":11435},{"_id":"573f2b5502472d034493bbb0","city":"Richmond Hill","zipcode":11405},{"_id":"573f2b5502472d034493bbb1","city":"Richmond Hill","zipcode":11431},{"_id":"573f2b5502472d034493bbb2","city":"St. Albans","zipcode":11433},{"_id":"573f2b5502472d034493bbb3","city":"Richmond Hill","zipcode":11439},{"_id":"573f2b5502472d034493bbb4","city":"Jamaica","zipcode":11451},{"_id":"573f2b5502472d034493bbb5","city":"Middle Village","zipcode":11379},{"_id":"573f2b5502472d034493bbb6","city":"Glendale","zipcode":11385},{"_id":"573f2b5502472d034493bbb7","city":"Richmond Hill","zipcode":11381},{"_id":"573f2b5502472d034493bbb8","city":"Queens Village","zipcode":11428},{"_id":"573f2b5502472d034493bbb9","city":"Cambria Heights","zipcode":11429},{"_id":"573f2b5502472d034493bbba","city":"Bellerose","zipcode":11426},{"_id":"573f2b5502472d034493bbbb","city":"Queens Village","zipcode":11427},{"_id":"573f2b5502472d034493bbbc","city":"Laurelton","zipcode":11411},{"_id":"573f2b5502472d034493bbbd","city":"Brookville","zipcode":11413},{"_id":"573f2b5502472d034493bbbe","city":"Queens County","zipcode":11422},{"_id":"573f2b5502472d034493bbbf","city":"Glen Oaks","zipcode":11005},{"_id":"573f2b5502472d034493bbc0","city":"Howard Beach","zipcode":11414},{"_id":"573f2b5502472d034493bbc1","city":"Ozone Park","zipcode":11417},{"_id":"573f2b5502472d034493bbc2","city":"South Ozone Park","zipcode":11420},{"_id":"573f2b5502472d034493bbc3","city":"Auburndale","zipcode":11365},{"_id":"573f2b5502472d034493bbc4","city":"Utopia","zipcode":11366},{"_id":"573f2b5502472d034493bbc5","city":"Kew Gardens Hill","zipcode":11367},{"_id":"573f2b5502472d034493bbc6","city":"Richmond Hill","zipcode":11425},{"_id":"573f2b5502472d034493bbc7","city":"Sunnyside","zipcode":11101},{"_id":"573f2b5502472d034493bbc8","city":"Sunnyside","zipcode":11104},{"_id":"573f2b5502472d034493bbc9","city":"Woodside","zipcode":11377},{"_id":"573f2b5502472d034493bbca","city":"Maspeth","zipcode":11378},{"_id":"573f2b5502472d034493bbcb","city":"Hunters Point","zipcode":11109},{"_id":"573f2b5502472d034493bbcc","city":"Murry Hill","zipcode":11354},{"_id":"573f2b5502472d034493bbcd","city":"Queensboro Hill","zipcode":11355},{"_id":"573f2b5502472d034493bbce","city":"College Point","zipcode":11356},{"_id":"573f2b5502472d034493bbcf","city":"Whitestone","zipcode":11357},{"_id":"573f2b5502472d034493bbd0","city":"Murry Hill","zipcode":11358},{"_id":"573f2b5502472d034493bbd1","city":"Clearview","zipcode":11359},{"_id":"573f2b5502472d034493bbd2","city":"Clearview","zipcode":11360},{"_id":"573f2b5502472d034493bbd3","city":"Richmond Hill","zipcode":11351},{"_id":"573f2b5502472d034493bbd4","city":"Corona","zipcode":11368},{"_id":"573f2b5502472d034493bbd5","city":"Elmhurst","zipcode":11373},{"_id":"573f2b5502472d034493bbd6","city":"Richmond Hill","zipcode":11380},{"_id":"573f2b5502472d034493bbd7","city":"Douglaston","zipcode":11362},{"_id":"573f2b5502472d034493bbd8","city":"Douglaston","zipcode":11363},{"_id":"573f2b5502472d034493bbd9","city":"Oakland Gardens","zipcode":11364},{"_id":"573f2b5502472d034493bbda","city":"Bayside","zipcode":11361},{"_id":"573f2b5502472d034493bbdb","city":"Rego Park","zipcode":11374},{"_id":"573f2b5502472d034493bbdc","city":"Forest Hills","zipcode":11375},{"_id":"573f2b5502472d034493bbdd","city":"St. Albans","zipcode":11412},{"_id":"573f2b5502472d034493bbde","city":"Springfield Grdn","zipcode":11434},{"_id":"573f2b5502472d034493bbdf","city":"South Jamaica","zipcode":11436},{"_id":"573f2b5502472d034493bbe0","city":"Queens","zipcode":11430},{"_id":"573f2b5502472d034493bbe1","city":"Long Island City","zipcode":11102},{"_id":"573f2b5502472d034493bbe2","city":"Long Island City","zipcode":11103},{"_id":"573f2b5502472d034493bbe3","city":"Steinway","zipcode":11105},{"_id":"573f2b5502472d034493bbe4","city":"Long Island City","zipcode":11106},{"_id":"573f2b5502472d034493bbe5","city":"Roosevelt Island","zipcode":10044},{"_id":"573f2b5502472d034493bbe6","city":"East Elmhurst","zipcode":11369},{"_id":"573f2b5502472d034493bbe7","city":"Steinway","zipcode":11370},{"_id":"573f2b5502472d034493bbe8","city":"Jackson Heights","zipcode":11372},{"_id":"573f2b5502472d034493bbe9","city":"Steinway","zipcode":11371},{"_id":"573f2b5502472d034493bbea","city":"West Brighton","zipcode":10310},{"_id":"573f2b5502472d034493bbeb","city":"Silver Lake","zipcode":10301},{"_id":"573f2b5502472d034493bbec","city":"Port Ivory","zipcode":10303},{"_id":"573f2b5502472d034493bbed","city":"West Brighton","zipcode":10302},{"_id":"573f2b5502472d034493bbee","city":"Bull's Head","zipcode":10314},{"_id":"573f2b5502472d034493bbef","city":"Great Kills","zipcode":10306},{"_id":"573f2b5502472d034493bbf0","city":"Great Kills","zipcode":10308},{"_id":"573f2b5502472d034493bbf1","city":"Grymes Hill","zipcode":10304},{"_id":"573f2b5502472d034493bbf2","city":"Rosebank","zipcode":10305},{"_id":"573f2b5502472d034493bbf3","city":"Tottenville","zipcode":10307},{"_id":"573f2b5502472d034493bbf4","city":"Rossville","zipcode":10309},{"_id":"573f2b5502472d034493bbf5","city":"Great Kills","zipcode":10312},{"_id":"573f2b5502472d034493bbf6","city":"Richmond Hill","zipcode":11499},{"_id":"573f2b5502472d034493bbf7","city":"Nassau County","zipcode":11001},{"_id":"573f2b5502472d034493bbf8","city":"Richmond Hill","zipcode":11002},{"_id":"573f2b5502472d034493bbf9","city":"Glen Oaks","zipcode":11004},{"_id":"573f2b5502472d034493bbfa","city":"Richmond Hill","zipcode":11352},{"_id":"573f2b5502472d034493bbfb","city":"Richmond Hill","zipcode":11386},{"_id":"573f2b5502472d034493bbfc","city":"Richmond Hill","zipcode":11390}]